IRIDIUM 39              
1 25042U 97069D   25167.09314993  .00000473  00000+0  11872-3 0  9998
2 25042  86.3929 211.5999 0016049 316.1826  43.8104 14.49219454449061
IRIDIUM 38              
1 25043U 97069E   25167.12520580  .00000374  00000+0  11694-3 0  9996
2 25043  86.3967 233.6011 0004259  97.3679 262.8003 14.38117794446068
IRIDIUM 42              
1 25077U 97077A   25166.57278423  .00000326  00000+0  10482-3 0  9997
2 25077  86.3969 240.0010 0002995 100.6354 259.5180 14.36351826440967
IRIDIUM 44              
1 25078U 97077B   25166.87897156  .00000348  00000+0  10384-3 0  9996
2 25078  86.3974 221.8030 0003676  66.3800 293.7785 14.40241918443514
IRIDIUM 45              
1 25104U 97082A   25166.93885216  .00015205  00000+0  54478-3 0  9993
2 25104  86.3581  48.5012 0115413 337.6757  21.9484 15.22415502451856
IRIDIUM 24              
1 25105U 97082B   25166.50686380  .00000427  00000+0  12372-3 0  9995
2 25105  86.3901  81.0143 0013667  84.0595 276.2163 14.42098311442979
IRIDIUM 51              
1 25262U 98018A   25166.73115711  .00018612  00000+0  41478-3 0  9993
2 25262  86.3832  56.5554 0083456 255.3288 103.8704 15.39745916446803
IRIDIUM 57              
1 25273U 98019B   25167.19635243  .00000297  00000+0  95876-4 0  9996
2 25273  86.3971 145.6769 0002388  88.2276 271.9194 14.35893012424859
